     3.04           N: GNSS NAV DATA    C: BDS              RINEX VERSION / TYPE
TPP 5.1.1                               20240331 235934 UTC PGM / RUN BY / DATE 
                                                            COMMENT             
                                                            COMMENT             
                                                            COMMENT             
BDSA    .2608E-07   .1490E-07  -.1192E-06  -.5960E-07       IONOSPHERIC CORR    
BDSB    .1290E+06   .1638E+05  -.2621E+06   .3277E+06       IONOSPHERIC CORR    
BDUT  -.2793967724E-08 -.710542736E-14 319488 2308          TIME SYSTEM CORR    
                                                            END OF HEADER       
C12 2024 04 01 15 00 00 -.224127550609E-03 -.683186840433E-11  .135525271561E-19
      .100000000000E+02  .675937500000E+02  .342835709055E-08  .157609241940E+01
      .328011810780E-05  .101314776111E-02  .296160578728E-05  .528262749863E+04
      .140400000000E+06  .242143869400E-07  .248426799850E+01 -.721774995327E-07
      .982515038427E+00  .309375000000E+03 -.146962397286E+01 -.682849872009E-08
     -.957182727646E-10  .000000000000E+00  .952000000000E+03  .000000000000E+00
      .200000000000E+01  .000000000000E+00  .239999997653E-08  .400000000000E-09
      .142560000000E+06  .900000000000E+01  .000000000000E+00  .000000000000E+00
C16 2024 04 01 15 00 00 -.431673484854E-03 -.237472264075E-10  .000000000000E+00
      .100000000000E+01 -.648750000000E+02  .136755696424E-08  .221830853640E+01
     -.173505395651E-05  .718503457028E-02  .132536515594E-04  .649330938339E+04
      .140400000000E+06 -.106170773506E-06 -.328051390280E+00 -.226311385632E-06
      .962908818686E+00 -.162078125000E+03 -.224529698456E+01 -.169471344876E-08
      .321799118511E-09  .000000000000E+00  .952000000000E+03  .000000000000E+00
      .200000000000E+01  .000000000000E+00 -.270000000135E-08  .490000000000E-08
      .143700000000E+06  .000000000000E+00  .000000000000E+00  .000000000000E+00
C12 2024 04 01 16 00 00 -.224152114242E-03 -.683098022591E-11  .135525271561E-19
      .110000000000E+02  .583437500000E+02  .347550191146E-08  .206488750589E+01
      .300258398056E-05  .101375428494E-02  .310642644763E-05  .528262481689E+04
      .144000000000E+06  .260770320892E-07  .248424370089E+01  .144354999065E-07
      .982514962355E+00  .304718750000E+03 -.147085425039E+01 -.676349601247E-08
     -.126433837905E-09  .000000000000E+00  .952000000000E+03  .000000000000E+00
      .200000000000E+01  .000000000000E+00  .239999997653E-08  .400000000000E-09
      .144000000000E+06  .100000000000E+02  .000000000000E+00  .000000000000E+00
C19 2024 04 01 16 00 00 -.916138989851E-03  .178967951570E-11  .000000000000E+00
      .100000000000E+01 -.804062500000E+02  .327835084219E-08  .141103441100E+01
     -.397069379687E-05  .107874826062E-02  .746687874198E-05  .528263324165E+04
      .144000000000E+06  .493600964546E-07 -.172872469276E+01  .367872416973E-07
      .977073005115E+00  .219906250000E+03 -.963314733102E+00 -.652491464603E-08
      .262868092368E-09  .000000000000E+00  .952000000000E+03  .000000000000E+00
      .200000000000E+01  .000000000000E+00  .949999989786E-08  .950000000000E-08
      .144000000000E+06  .100000000000E+01  .000000000000E+00  .000000000000E+00
C25 2024 04 01 16 00 00  .364041770808E-03  .965094670846E-11  .000000000000E+00
      .100000000000E+01  .217031250000E+02  .429982196199E-08  .785743568596E+00
      .922009348869E-06  .523555208929E-03  .779982656240E-05  .528261575127E+04
      .144000000000E+06  .381842255592E-07  .340628688026E+00  .344589352608E-07
      .946844730306E+00  .195031250000E+03  .770983123090E+00 -.683457040158E-08
     -.151434879299E-09  .000000000000E+00  .952000000000E+03  .000000000000E+00
      .200000000000E+01  .000000000000E+00  .800000010681E-09  .800000000000E-09
      .144000000000E+06  .100000000000E+01  .000000000000E+00  .000000000000E+00
C29 2024 04 01 16 00 00  .262420624495E-03  .484412510104E-11  .000000000000E+00
      .100000000000E+01  .696875000000E+02  .384373153542E-08  .140519097637E+01
      .338442623615E-05  .259490334429E-03  .419747084379E-05  .528262123871E+04
      .144000000000E+06 -.367872416973E-07  .242853843417E+01  .102445483208E-07
      .957659805712E+00  .273046875000E+03  .115624961103E+01 -.694957519199E-08
     -.882179603464E-10  .000000000000E+00  .952000000000E+03  .000000000000E+00
      .200000000000E+01  .000000000000E+00 -.599999994133E-09  .506000000000E-07
      .144000000000E+06  .100000000000E+01  .000000000000E+00  .000000000000E+00
C26 2024 04 01 16 00 00 -.271121738479E-03 -.543209921489E-11  .000000000000E+00
      .100000000000E+01  .175937500000E+02  .430660795894E-08  .240959713849E+01
      .868923962116E-06  .858374405652E-03  .778399407864E-05  .528261706352E+04
      .144000000000E+06 -.479631125927E-07  .341234122525E+00  .284053385258E-07
      .946893604937E+00  .196968750000E+03  .714326593884E+00 -.681242662206E-08
     -.191793703263E-09  .000000000000E+00  .952000000000E+03  .000000000000E+00
      .200000000000E+01  .000000000000E+00 -.519999998616E-08  .460000000000E-07
      .144000000000E+06  .100000000000E+01  .000000000000E+00  .000000000000E+00
C39 2024 04 01 16 00 00 -.778073444963E-05 -.337507799486E-12  .000000000000E+00
      .100000000000E+01 -.937812500000E+02  .130291141435E-08  .313969129457E+01
     -.287964940071E-05  .321713939775E-02  .135917216539E-04  .649355317497E+04
      .144000000000E+06 -.558793544769E-08 -.399531267544E+00 -.717118382454E-07
      .963421223298E+00 -.167000000000E+03 -.272401809093E+01 -.163256800301E-08
      .340014162955E-09  .000000000000E+00  .952000000000E+03  .000000000000E+00
      .200000000000E+01  .000000000000E+00  .650000009372E-08  .650000000000E-08
      .144000000000E+06  .100000000000E+01  .000000000000E+00  .000000000000E+00
C22 2024 04 01 16 00 00 -.539093744010E-04  .134763311621E-10  .000000000000E+00
      .100000000000E+01 -.834218750000E+02  .341907098946E-08 -.209082253161E+00
     -.412203371525E-05  .640431186184E-03  .778818503022E-05  .528263119888E+04
      .144000000000E+06  .353902578354E-07 -.172712190362E+01  .232830643654E-08
      .976353528838E+00  .210796875000E+03 -.137990548043E+00 -.660027492794E-08
      .216437586923E-09  .000000000000E+00  .952000000000E+03  .000000000000E+00
      .200000000000E+01  .000000000000E+00  .138000002536E-07  .138000000000E-07
      .144000000000E+06  .100000000000E+01  .000000000000E+00  .000000000000E+00
C16 2024 04 01 16 00 00 -.431755674072E-03 -.233173480524E-10  .000000000000E+00
      .100000000000E+01 -.726250000000E+02  .133362697949E-08  .248091567783E+01
     -.203959643841E-05  .718596042134E-02  .135973095894E-04  .649330680084E+04
      .144000000000E+06 -.428408384323E-07 -.328057271211E+00 -.973232090473E-07
      .962910591743E+00 -.170734375000E+03 -.224537301826E+01 -.162935358340E-08
      .301083969927E-09  .000000000000E+00  .952000000000E+03  .000000000000E+00
      .200000000000E+01  .000000000000E+00 -.270000000135E-08  .490000000000E-08
      .144000000000E+06  .000000000000E+00  .000000000000E+00  .000000000000E+00
C38 2024 04 01 16 00 00  .146359903738E-03  .230926389122E-11  .000000000000E+00
      .100000000000E+01 -.441437500000E+03  .796461747257E-09 -.117429838039E+01
     -.147954560816E-04  .191304506734E-02 -.776723027229E-06  .649345398521E+04
      .144000000000E+06  .295229256153E-06 -.249316061668E+01  .926665961742E-07
      .100421636313E+01  .283250000000E+03 -.259419823587E+01 -.222044963350E-08
     -.757174396496E-10  .000000000000E+00  .952000000000E+03  .000000000000E+00
      .200000000000E+01  .000000000000E+00  .229999996826E-08  .230000000000E-08
      .144000000000E+06  .100000000000E+01  .000000000000E+00  .000000000000E+00
C44 2024 04 01 16 00 00  .430838554166E-03  .113145048886E-10  .000000000000E+00
      .100000000000E+01  .631875000000E+02  .404266839337E-08  .323225176723E+00
      .333320349455E-05  .845909118652E-03  .305613502860E-05  .528262237167E+04
      .144000000000E+06  .358559191227E-07  .242934886591E+01  .139698386192E-07
      .953197656874E+00  .292437500000E+03  .657802182273E+00 -.706672292880E-08
     -.124648049234E-09  .000000000000E+00  .952000000000E+03  .000000000000E+00
      .200000000000E+01  .000000000000E+00 -.150000001309E-08  .497000000000E-07
      .144000000000E+06  .100000000000E+01  .000000000000E+00  .000000000000E+00
C24 2024 04 01 16 00 00  .946741667576E-03 -.561417579092E-11  .000000000000E+00
      .100000000000E+01  .203125000000E+02  .432946605392E-08  .151003862525E+01
      .100163742900E-05  .662437640131E-03  .788737088442E-05  .528263609314E+04
      .144000000000E+06 -.186264514923E-07  .364361407607E+00  .884756445885E-07
      .945319096929E+00  .193015625000E+03  .843901164397E+00 -.684849955321E-08
     -.179650340301E-09  .000000000000E+00  .952000000000E+03  .000000000000E+00
      .200000000000E+01  .000000000000E+00  .379999987032E-08  .380000000000E-08
      .144000000000E+06  .100000000000E+01  .000000000000E+00  .000000000000E+00
C20 2024 04 01 16 00 00 -.316058401950E-03 -.387458953810E-10  .000000000000E+00
      .100000000000E+01 -.943437500000E+02  .332049545482E-08  .175716517781E+01
     -.460725277662E-05  .887494417839E-03  .708922743797E-05  .528263202286E+04
      .144000000000E+06 -.493600964546E-07 -.172809614415E+01  .260770320892E-07
      .977061813792E+00  .227609375000E+03 -.572243727082E+00 -.648634161074E-08
      .233581158164E-09  .000000000000E+00  .952000000000E+03  .000000000000E+00
      .200000000000E+01  .000000000000E+00  .119000000964E-07  .119000000000E-07
      .144000000000E+06  .100000000000E+01  .000000000000E+00  .000000000000E+00
